OBJECT_NAME,OBJECT_ID,EPOCH,MEAN_MOTION,ECCENTRICITY,INCLINATION,RA_OF_ASC_NODE,ARG_OF_PERICENTER,MEAN_ANOMALY,EPHEMERIS_TYPE,CLASSIFICATION_TYPE,NORAD_CAT_ID,ELEMENT_SET_NO,REV_AT_EPOCH,BSTAR,MEAN_MOTION_DOT,MEAN_MOTION_DDOT
STARLINK-4398,2022-099B,2026-07-10T20:00:01.999008,15.49098883,.000196,97.6044,316.7596,93.3393,122.4625,0,U,53466,999,586,-.16791E-1,-.833072E-2,0
STARLINK-4394,2022-099C,2026-07-10T20:00:01.999008,15.77957468,.0000825,97.6018,318.3409,71.5643,128.2110,0,U,53467,999,597,.29505E-2,.52855E-2,0
STARLINK-4400,2022-099D,2026-07-09T07:25:00.719040,15.05652292,.00016283,97.2840,308.1670,122.5425,237.5960,0,U,53468,999,21427,-.7660725E-5,-.167E-5,0
STARLINK-4399,2022-099E,2026-07-10T20:00:01.999008,15.15017985,.0002747,97.2852,310.7563,99.2997,101.3500,0,U,53469,999,577,.22203E-2,.4162E-3,0
STARLINK-4393,2022-099F,2026-07-09T17:23:07.717632,15.05658357,.00014357,97.2827,308.5243,108.8785,251.2599,0,U,53470,999,21433,-.26742875E-4,-.442E-5,0
STARLINK-4316,2022-099G,2026-07-10T20:00:01.999008,15.15324295,.0002063,97.2843,310.7057,50.3125,44.9240,0,U,53471,999,581,.19647E-2,.37115E-3,0
STARLINK-4447,2022-099H,2026-07-09T06:21:12.114720,15.05660213,.00017508,97.2837,308.0672,124.7932,235.3460,0,U,53472,999,21426,-.39013401E-4,-.619E-5,0
STARLINK-4383,2022-099J,2026-07-10T20:00:01.999008,15.53396406,.0001289,97.6018,315.4555,83.5941,239.0692,0,U,53473,999,591,.58328E-2,.386761E-2,0
STARLINK-4445,2022-099K,2026-07-10T06:56:35.423232,15.05658154,.00014718,97.2844,309.0963,108.5094,251.6293,0,U,53474,999,21442,-.14500363E-4,-.265E-5,0
STARLINK-4389,2022-099L,2026-07-10T20:00:01.999008,15.54330948,.0001033,97.6036,316.9173,102.7986,189.8076,0,U,53475,999,597,-.64641E-2,-.401862E-2,0
STARLINK-4378,2022-099M,2026-07-10T06:54:53.864352,15.04838089,.00003985,97.3252,309.2472,157.9522,202.1723,0,U,53476,999,21442,.1683551E-5,-.33E-6,0
STARLINK-4412,2022-099N,2026-07-10T20:00:01.999008,15.69335812,.0000849,97.6027,317.0204,61.8077,123.0829,0,U,53477,999,592,.34919E-2,.428476E-2,0
STARLINK-4433,2022-099P,2026-07-10T17:34:34.774752,15.05654195,.0001849,97.2859,309.4271,151.6590,208.4738,0,U,53478,999,21448,-.26731E-4,-.442E-5,0
STARLINK-4436,2022-099Q,2026-07-10T20:00:01.999008,15.10296644,.0000818,97.2847,310.7657,349.0912,303.6843,0,U,53479,999,580,.28748E-2,.47302E-3,0
STARLINK-4442,2022-099R,2026-07-10T20:00:01.999008,15.61444243,.0001495,97.6033,317.0448,87.6844,246.1220,0,U,53480,999,593,.34661E-2,.306613E-2,0
STARLINK-4302,2022-099S,2026-07-10T20:00:01.999008,15.59664715,.0001058,97.6057,316.7620,86.6684,210.9608,0,U,53481,999,594,-.48469E-2,-.368997E-2,0
STARLINK-4360,2022-099T,2026-07-10T06:40:38.470656,15.05666523,.00013275,97.2845,309.1125,110.1179,250.0192,0,U,53482,999,21442,.16752689E-3,.2363E-4,0
STARLINK-4426,2022-099V,2026-07-10T20:00:01.999008,15.15938837,.0002765,97.2825,310.6977,89.0148,81.2888,0,U,53484,999,572,.18893E-2,.36313E-3,0
STARLINK-4430,2022-099W,2026-07-10T06:44:37.453920,15.05665504,.00011018,97.2839,309.0823,94.4484,265.6870,0,U,53485,999,21442,.95339657E-4,.132E-4,0
STARLINK-4431,2022-099X,2026-07-10T20:00:01.999008,15.61018649,.0001183,97.6059,317.2339,93.3336,224.3785,0,U,53486,999,586,-.48082E-2,-.384753E-2,0
STARLINK-4432,2022-099Y,2026-07-10T20:00:01.999008,15.15188544,.0002958,97.2847,310.7297,108.3615,175.7737,0,U,53487,999,582,.19454E-2,.36608E-3,0
STARLINK-4421,2022-099Z,2026-07-10T19:49:47.424576,15.11504614,.000182,97.2860,310.7886,83.6868,276.4570,0,U,53488,999,21458,.64383E-2,.110569E-2,0
STARLINK-4392,2022-099AA,2026-07-10T07:09:27.986112,15.06459187,.00014566,97.2859,309.0677,75.5717,284.5672,0,U,53489,999,21442,-.40382748E-4,-.652E-5,0
STARLINK-4387,2022-099AB,2026-07-10T20:00:01.999008,15.39738133,.000155,97.6040,315.7892,90.7623,323.8654,0,U,53490,999,588,.24707E-2,.98795E-3,0
STARLINK-4450,2022-099AC,2026-07-10T20:00:01.999008,15.54089328,.0001077,97.6037,317.3979,93.2099,16.1322,0,U,53491,999,599,.10867E-2,.70902E-3,0
STARLINK-4451,2022-099AD,2026-07-10T20:00:01.999008,15.54613778,.0000814,97.6003,314.6207,104.4964,157.5511,0,U,53492,999,591,.85255E-2,.607673E-2,0
STARLINK-4340,2022-099AF,2026-07-10T20:00:01.999008,15.10544134,.0001017,97.2849,310.7572,106.6481,257.9608,0,U,53494,999,581,.89243E-3,.14677E-3,0
STARLINK-4429,2022-099AG,2026-07-10T14:51:07.000128,15.05654174,.0001265,97.2835,309.3557,95.3571,264.7801,0,U,53495,999,21447,-.15847E-4,-.285E-5,0
STARLINK-4453,2022-099AJ,2026-07-09T16:43:15.216096,15.05657320,.00016679,97.2825,308.4576,123.0695,237.0693,0,U,53497,999,21433,-.6700151E-5,-.153E-5,0
STARLINK-4439,2022-099AK,2026-07-10T20:00:01.999008,15.13490690,.0001659,97.2857,310.6804,86.8138,129.0258,0,U,53498,999,577,.39936E-1,.762196E-2,0
STARLINK-4454,2022-099AL,2026-07-10T20:00:01.999008,15.40370995,.0001072,97.6027,315.8109,86.8162,142.3641,0,U,53499,999,589,.21834E-2,.89012E-3,0
STARLINK-4455,2022-099AM,2026-07-10T20:00:01.999008,15.94346482,.0000622,97.6047,318.7121,98.2720,144.8227,0,U,53500,999,592,.19117E-2,.708592E-2,.21314E-3
STARLINK-4434,2022-099AN,2026-07-10T20:00:01.999008,15.57404693,.0001821,97.6058,316.9120,71.9471,11.3735,0,U,53501,999,586,-.59948E-2,-.416749E-2,0
STARLINK-4435,2022-099AP,2026-07-10T20:00:01.999008,15.57025003,.0001838,97.6031,318.1238,75.0507,14.9842,0,U,53502,999,597,-.57157E-2,-.392914E-2,0
STARLINK-4448,2022-099AR,2026-07-09T19:00:47.161728,15.56407983,.00014708,97.6023,315.7701,96.2216,263.9205,0,U,53504,999,21469,.15806751E-4,.1007E-4,0
STARLINK-4446,2022-099AS,2026-07-10T08:38:17.559744,15.82805113,.00030974,97.6054,324.7502,183.5613,176.5634,0,U,53505,999,21531,.41270568E-3,.87394E-3,0
STARLINK-4437,2022-099AT,2026-07-10T20:00:01.999008,15.79778637,.0000795,97.6028,318.5114,79.4492,203.8997,0,U,53506,999,572,.27015E-2,.524627E-2,0
STARLINK-4443,2022-099AV,2026-07-10T20:00:01.999008,15.12433871,.000145,97.2861,310.7462,88.6046,2.2520,0,U,53508,999,581,.43956E-1,.818718E-2,0
STARLINK-4402,2022-099AW,2026-07-10T20:00:01.999008,15.68024347,.0000896,97.6034,316.6919,78.0496,339.3421,0,U,53509,999,585,.33299E-2,.385344E-2,0
STARLINK-4503,2022-101B,2026-07-09T04:44:34.031040,15.08830672,.00013211,53.1580,248.4216,89.6218,270.4925,0,U,53528,999,21450,.34620427E-4,.263E-5,0
STARLINK-4478,2022-101C,2026-07-10T03:27:53.771040,15.15445875,.00029615,53.2132,240.5126,57.0228,303.1051,0,U,53529,999,21470,.4815379E-3,.8917E-4,0
STARLINK-4482,2022-101D,2026-07-09T11:16:44.917248,15.08832966,.00012243,53.1568,247.4169,94.5570,265.5562,0,U,53530,999,21454,.59150006E-4,.653E-5,0
STARLINK-4487,2022-101E,2026-07-10T20:00:01.999008,15.18609198,.0001507,53.1608,240.8759,16.9362,32.3035,0,U,53531,999,583,.37641E-3,.7575E-4,0
STARLINK-4483,2022-101F,2026-07-10T19:25:37.096032,15.08824067,.0001202,53.1588,241.1757,82.4435,277.6693,0,U,53532,999,21475,.4476E-4,.424E-5,0
STARLINK-4493,2022-101G,2026-07-10T20:00:01.999008,15.16415987,.0002033,53.1584,240.9431,67.7534,140.2125,0,U,53533,999,582,.55627E-3,.10646E-3,0
STARLINK-4138,2022-101J,2026-07-09T11:27:18.472896,15.08834397,.00008059,53.1581,247.1632,106.7469,253.3611,0,U,53535,999,21455,.10828194E-3,.1436E-4,0
STARLINK-4053,2022-101K,2026-07-10T18:11:50.466336,15.29350157,.0001141,53.1614,229.7323,71.6936,288.4189,0,U,53536,999,21490,-.14231E-4,-.766E-5,0
STARLINK-4120,2022-101L,2026-07-10T11:19:27.425280,15.08836283,.0000923,53.1579,242.6638,90.6038,269.5059,0,U,53537,999,21470,.81068E-4,.1003E-4,0
STARLINK-4123,2022-101N,2026-07-09T11:21:58.989024,15.08835921,.00012295,53.1561,247.1780,77.0789,283.0339,0,U,53539,999,21455,.50658857E-4,.518E-5,0
STARLINK-4486,2022-101P,2026-07-10T03:34:30.429120,15.08833532,.00013036,53.1603,234.5024,87.2509,272.8631,0,U,53540,999,21547,.24787644E-4,.106E-5,0
STARLINK-4485,2022-101Q,2026-07-09T11:11:24.580608,15.08830910,.00012581,53.1580,247.2132,78.1178,281.9954,0,U,53541,999,21524,.49402828E-4,.498E-5,0
STARLINK-4489,2022-101R,2026-07-10T20:00:01.999008,15.33094669,.0001151,53.1729,229.0061,84.9149,244.8618,0,U,53542,999,583,.20911E-1,.727109E-2,0
STARLINK-4297,2022-101S,2026-07-10T20:00:01.999008,15.34396708,.0001016,53.1592,228.4404,79.6763,133.5941,0,U,53543,999,578,-.31485E-3,-.10997E-3,0
STARLINK-4303,2022-101T,2026-07-10T20:00:01.999008,15.35120300,.0000857,53.1607,229.0161,54.6061,308.9194,0,U,53544,999,543,.21894E-2,.7608E-3,0
STARLINK-4475,2022-101U,2026-07-10T20:00:01.999008,15.35390868,.0000799,53.1599,229.0598,61.6784,216.9436,0,U,53545,999,573,-.2731E-3,-.9891E-4,0
STARLINK-4477,2022-101V,2026-07-10T20:00:01.999008,15.33321393,.0001369,53.1702,218.6420,74.3904,155.5724,0,U,53546,999,578,.21435E-1,.752518E-2,0
STARLINK-4474,2022-101W,2026-07-10T20:00:01.999008,15.35395749,.0001499,53.1607,228.9038,74.9742,325.3916,0,U,53547,999,574,-.13405E-3,-.5053E-4,0
STARLINK-4513,2022-101X,2026-07-10T03:43:41.091744,15.08831209,.00013345,53.1583,234.1154,83.1561,276.9582,0,U,53548,999,21479,.47257593E-4,.464E-5,0
STARLINK-4514,2022-101AA,2026-07-10T03:48:58.484736,15.08839508,.00009244,53.1594,234.1001,86.2241,273.8856,0,U,53551,999,21545,.39326879E-4,.338E-5,0
STARLINK-4495,2022-101AB,2026-07-10T16:10:52.048128,15.08835900,.0001436,53.1577,231.7837,84.7336,275.3819,0,U,53552,999,21552,.11413E-3,.1529E-4,0
STARLINK-4501,2022-101AC,2026-07-10T03:17:08.526336,15.08834735,.00011066,53.1576,234.0707,78.3749,281.7367,0,U,53553,999,21545,.8338904E-5,-.155E-5,0
STARLINK-4506,2022-101AD,2026-07-10T03:18:33.292512,15.08842799,.00008453,53.1621,234.2036,62.4319,297.6758,0,U,53554,999,21479,.5970065E-4,.663E-5,0
STARLINK-4504,2022-101AE,2026-07-10T11:30:00.756288,15.08834156,.0001385,53.1580,232.6595,83.5504,276.5645,0,U,53555,999,21550,.67174E-4,.781E-5,0
STARLINK-4505,2022-101AF,2026-07-10T03:06:33.418944,15.08836902,.00011559,53.1591,234.2299,81.8241,278.2881,0,U,53556,999,21479,.27451287E-4,.149E-5,0
STARLINK-4502,2022-101AG,2026-07-10T03:22:25.185792,15.08859171,.0002016,53.1579,234.1786,94.9572,265.1649,0,U,53557,999,21544,.17824105E-3,.2551E-4,0
